COMMENT,ORIGINATOR,NORAD_CAT_ID,OBJECT_NAME,OBJECT_TYPE,CLASSIFICATION_TYPE,INTLDES,EPOCH,EPOCH_MICROSECONDS,MEAN_MOTION,ECCENTRICITY,INCLINATION,RA_OF_ASC_NODE,ARG_OF_PERICENTER,MEAN_ANOMALY,EPHEMERIS_TYPE,ELEMENT_SET_NO,REV_AT_EPOCH,BSTAR,MEAN_MOTION_DOT,MEAN_MOTION_DDOT,FILE,TLE_LINE0,TLE_LINE1,TLE_LINE2,OBJECT_ID,OBJECT_NUMBER,SEMIMAJOR_AXIS,PERIOD,APOGEE,PERIGEE,DECAYED
"GENERATED VIA SPACETRACK.ORG API","18 SPCS","55096","SPACEBEE-161","PAYLOAD","U","23001CR","2023-09-22 23:30:30","828672","15.23665992","0.0013802","97.4661","325.3977","26.3605","333.8331","0","999","3997","0.0012192","0.00029332","0","4013993","0 SPACEBEE-161","1 55096U 23001CR  23265.97952348  .00029332  00000-0  12192-2 0  9992","2 55096  97.4661 325.3977 0013802  26.3605 333.8331 15.23665992 39972","2023-001CR","55096","6872.931","94.509","504.282","485.310","0"
"GENERATED VIA SPACETRACK.ORG API","18 SPCS","55096","SPACEBEE-161","PAYLOAD","U","23001CR","2023-09-23 02:39:39","94560","15.2367284","0.0013802","97.4661","325.5284","25.9473","334.2453","0","999","3999","0.0011223","0.00026993","0","4014543","0 SPACEBEE-161","1 55096U 23001CR  23266.11086915  .00026993  00000-0  11223-2 0  9991","2 55096  97.4661 325.5284 0013802  25.9473 334.2453 15.23672840 39995","2023-001CR","55096","6872.911","94.508","504.262","485.290","0"
"GENERATED VIA SPACETRACK.ORG API","18 SPCS","55096","SPACEBEE-161","PAYLOAD","U","23001CR","2023-09-24 03:52:43","510080","15.23729492","0.0013717","97.4662","326.5739","22.4413","337.7421","0","999","4015","0.0010694","0.00025755","0","4015275","0 SPACEBEE-161","1 55096U 23001CR  23267.16161470  .00025755  00000-0  10694-2 0  9993","2 55096  97.4662 326.5739 0013717  22.4413 337.7421 15.23729492 40152","2023-001CR","55096","6872.740","94.505","504.033","485.178","0"
"GENERATED VIA SPACETRACK.ORG API","18 SPCS","55096","SPACEBEE-161","PAYLOAD","U","23001CR","2023-09-24 03:52:43","510080","15.23729492","0.0013717","97.4662","326.5739","22.4413","337.7421","0","999","4015","0.0010694","0.00025755","0","4015358","0 SPACEBEE-161","1 55096U 23001CR  23267.16161470  .00025755  00000-0  10694-2 0  9993","2 55096  97.4662 326.5739 0013717  22.4413 337.7421 15.23729492 40152","2023-001CR","55096","6872.740","94.505","504.033","485.178","0"
"GENERATED VIA SPACETRACK.ORG API","18 SPCS","55096","SPACEBEE-161","PAYLOAD","U","23001CR","2023-09-24 18:03:48","240288","15.23761875","0.0013587","97.4664","327.1618","20.3779","339.7998","0","999","4024","0.0010955","0.00026412","0","4015673","0 SPACEBEE-161","1 55096U 23001CR  23267.75264167  .00026412  00000-0  10955-2 0  9996","2 55096  97.4664 327.1618 0013587  20.3779 339.7998 15.23761875 40246","2023-001CR","55096","6872.643","94.503","503.846","485.170","0"
"GENERATED VIA SPACETRACK.ORG API","18 SPCS","55096","SPACEBEE-161","PAYLOAD","U","23001CR","2023-09-25 03:31:10","769952","15.23783915","0.0013628","97.4662","327.5544","18.6562","341.5171","0","999","4030","0.0011356","0.00027403","0","4016340","0 SPACEBEE-161","1 55096U 23001CR  23268.14665243  .00027403  00000-0  11356-2 0  9997","2 55096  97.4662 327.5544 0013628  18.6562 341.5171 15.23783915 40302","2023-001CR","55096","6872.577","94.502","503.807","485.076","0"
"GENERATED VIA SPACETRACK.ORG API","18 SPCS","55096","SPACEBEE-161","PAYLOAD","U","23001CR","2023-09-25 16:07:39","679392","15.23827358","0.0013508","97.4663","328.0769","16.7869","343.3813","0","999","4038","0.0014098","0.0003411","0","4016616","0 SPACEBEE-161","1 55096U 23001CR  23268.67198703  .00034110  00000-0  14098-2 0  9996","2 55096  97.4663 328.0769 0013508  16.7869 343.3813 15.23827358 40385","2023-001CR","55096","6872.446","94.499","503.594","485.028","0"
"GENERATED VIA SPACETRACK.ORG API","18 SPCS","55096","SPACEBEE-161","PAYLOAD","U","23001CR","2023-09-25 16:07:39","679392","15.23827358","0.0013508","97.4663","328.0769","16.7869","343.3813","0","999","4038","0.0014098","0.0003411","0","4016730","0 SPACEBEE-161","1 55096U 23001CR  23268.67198703  .00034110  00000-0  14098-2 0  9996","2 55096  97.4663 328.0769 0013508  16.7869 343.3813 15.23827358 40385","2023-001CR","55096","6872.446","94.499","503.594","485.028","0"
"GENERATED VIA SPACETRACK.ORG API","18 SPCS","55096","SPACEBEE-161","PAYLOAD","U","23001CR","2023-09-26 03:09:34","125408","15.23859013","0.0013547","97.4657","328.5338","14.9345","345.229","0","999","4045","0.0013667","0.00033092","0","4017272","0 SPACEBEE-161","1 55096U 23001CR  23269.13164497  .00033092  00000-0  13667-2 0  9990","2 55096  97.4657 328.5338 0013547  14.9345 345.2290 15.23859013 40458","2023-001CR","55096","6872.351","94.497","503.526","484.906","0"
"GENERATED VIA SPACETRACK.ORG API","18 SPCS","55096","SPACEBEE-161","PAYLOAD","U","23001CR","2023-09-26 17:20:34","294560","15.23902458","0.0013448","97.4661","329.1226","12.7167","347.4407","0","999","4054","0.0014646","0.00035524","0","4017468","0 SPACEBEE-161","1 55096U 23001CR  23269.72261915  .00035524  00000-0  14646-2 0  9998","2 55096  97.4661 329.1226 0013448  12.7167 347.4407 15.23902458 40540","2023-001CR","55096","6872.220","94.494","503.327","484.843","0"
"GENERATED VIA SPACETRACK.ORG API","18 SPCS","55096","SPACEBEE-161","PAYLOAD","U","23001CR","2023-09-26 17:20:34","294560","15.23902458","0.0013448","97.4661","329.1226","12.7167","347.4407","0","999","4054","0.0014646","0.00035524","0","4017567","0 SPACEBEE-161","1 55096U 23001CR  23269.72261915  .00035524  00000-0  14646-2 0  9998","2 55096  97.4661 329.1226 0013448  12.7167 347.4407 15.23902458 40540","2023-001CR","55096","6872.220","94.494","503.327","484.843","0"
"GENERATED VIA SPACETRACK.ORG API","18 SPCS","55096","SPACEBEE-161","PAYLOAD","U","23001CR","2023-09-27 02:47:53","664576","15.23928071","0.001345","97.4661","329.5147","11.4104","348.7436","0","999","4060","0.001355","0.00032873","0","4018203","0 SPACEBEE-161","1 55096U 23001CR  23270.11659334  .00032873  00000-0  13550-2 0  9996","2 55096  97.4661 329.5147 0013450  11.4104 348.7436 15.23928071 40608","2023-001CR","55096","6872.143","94.493","503.251","484.765","0"
"GENERATED VIA SPACETRACK.ORG API","18 SPCS","55096","SPACEBEE-161","PAYLOAD","U","23001CR","2023-09-28 02:26:09","773664","15.23983598","0.0013404","97.4659","330.4953","8.1523","351.9929","0","999","4075","0.0011004","0.00026705","0","4018674","0 SPACEBEE-161","1 55096U 23001CR  23271.10150201  .00026705  00000-0  11004-2 0  9994","2 55096  97.4659 330.4953 0013404   8.1523 351.9929 15.23983598 40752","2023-001CR","55096","6871.976","94.489","503.052","484.630","0"
"GENERATED VIA SPACETRACK.ORG API","18 SPCS","55096","SPACEBEE-161","PAYLOAD","U","23001CR","2023-09-28 02:26:09","773664","15.23983598","0.0013404","97.4659","330.4953","8.1523","351.9929","0","999","4075","0.0011004","0.00026705","0","4019158","0 SPACEBEE-161","1 55096U 23001CR  23271.10150201  .00026705  00000-0  11004-2 0  9994","2 55096  97.4659 330.4953 0013404   8.1523 351.9929 15.23983598 40752","2023-001CR","55096","6871.976","94.489","503.052","484.630","0"
"GENERATED VIA SPACETRACK.ORG API","18 SPCS","55096","SPACEBEE-161","PAYLOAD","U","23001CR","2023-09-28 16:37:06","51360","15.24012645","0.0013325","97.4659","331.0837","6.144","353.9958","0","999","4084","0.00097342","0.00023625","0","4019377","0 SPACEBEE-161","1 55096U 23001CR  23271.69243115  .00023625  00000-0  97342-3 0  9993","2 55096  97.4659 331.0837 0013325   6.1440 353.9958 15.24012645 40849","2023-001CR","55096","6871.889","94.487","502.911","484.597","0"
"GENERATED VIA SPACETRACK.ORG API","18 SPCS","55096","SPACEBEE-161","PAYLOAD","U","23001CR","2023-09-29 09:57:06","866784","15.24046959","0.0013298","97.4652","331.8027","3.3119","356.8204","0","999","4095","0.00097436","0.00023672","0","4019870","0 SPACEBEE-161","1 55096U 23001CR  23272.41466281  .00023672  00000-0  97436-3 0  9991","2 55096  97.4652 331.8027 0013298   3.3119 356.8204 15.24046959 40955","2023-001CR","55096","6871.786","94.485","502.789","484.513","0"
"GENERATED VIA SPACETRACK.ORG API","18 SPCS","55096","SPACEBEE-161","PAYLOAD","U","23001CR","2023-09-29 09:57:06","866784","15.24046959","0.0013298","97.4652","331.8027","3.3119","356.8204","0","999","4095","0.00097436","0.00023672","0","4020020","0 SPACEBEE-161","1 55096U 23001CR  23272.41466281  .00023672  00000-0  97436-3 0  9991","2 55096  97.4652 331.8027 0013298   3.3119 356.8204 15.24046959 40955","2023-001CR","55096","6871.786","94.485","502.789","484.513","0"
"GENERATED VIA SPACETRACK.ORG API","18 SPCS","55096","SPACEBEE-161","PAYLOAD","U","23001CR","2023-09-30 03:17:05","942112","15.24091947","0.0013219","97.4647","332.5221","0.5068","359.618","0","999","4106","0.0011052","0.00026907","0","4020426","0 SPACEBEE-161","1 55096U 23001CR  23273.13687433  .00026907  00000-0  11052-2 0  9998","2 55096  97.4647 332.5221 0013219   0.5068 359.6180 15.24091947 41062","2023-001CR","55096","6871.650","94.482","502.599","484.432","0"
"GENERATED VIA SPACETRACK.ORG API","18 SPCS","55096","SPACEBEE-161","PAYLOAD","U","23001CR","2023-09-30 03:17:05","942112","15.24091947","0.0013219","97.4647","332.5221","0.5068","359.618","0","999","4106","0.0011052","0.00026907","0","4020886","0 SPACEBEE-161","1 55096U 23001CR  23273.13687433  .00026907  00000-0  11052-2 0  9998","2 55096  97.4647 332.5221 0013219   0.5068 359.6180 15.24091947 41062","2023-001CR","55096","6871.650","94.482","502.599","484.432","0"
"GENERATED VIA SPACETRACK.ORG API","18 SPCS","55096","SPACEBEE-161","PAYLOAD","U","23001CR","2023-10-01 02:55:12","834912","15.24152385","0.0013078","97.4642","333.5028","356.9292","3.1863","0","999","4121","0.001216","0.00029674","0","4021853","0 SPACEBEE-161","1 55096U 23001CR  23274.12167633  .00029674  00000-0  12160-2 0  9998","2 55096  97.4642 333.5028 0013078 356.9292   3.1863 15.24152385 41213","2023-001CR","55096","6871.469","94.479","502.320","484.347","0"
